satname,norad_id,inclination_deg,eccentricity,mean_motion_rev_per_day,perigee_km,apogee_km,l1,l2
STARLINK-1320,45572,53.0581,0.000989,15.43596796,428.76554124787526,442.2429236056141,1 45572U 20025AT  25310.74321947  .00077788  00000+0  16925-2 0  9991,2 45572  53.0581 220.2854 0009890  44.8745 315.3058 15.43596796307671
STARLINK-1321,45573,53.0549,0.0001492,15.06408276,546.1529350859237,548.2194515268066,1 45573U 20025AU  25310.20293897  .00001067  00000+0  90531-4 0  9999,2 45573  53.0549 270.9717 0001492  90.4513 269.6647 15.06408276306595
STARLINK-1328,45576,53.0524,0.0011531,15.70850964,348.6980564913629,364.2293926824059,1 45576U 20025AX  25310.91668980  .00135134  00000+0  10475-2 0  9999,2 45576  53.0524 241.2008 0011531  66.8507  83.9466 15.70850964  6027
STARLINK-1331,45578,53.0557,0.0001544,15.06404363,546.1289142512196,548.2674577566577,1 45578U 20025AZ  25310.18083934  .00000512  00000+0  53243-4 0  9993,2 45578  53.0557 271.0717 0001544  97.5331 262.5834 15.06404363306903
STARLINK-1333,45580,53.0538,0.0001274,15.06399027,546.3322502585434,548.0968298309472,1 45580U 20025BB  25310.65170738  .00000962  00000+0  83473-4 0  9994,2 45580  53.0538 278.9558 0001274  97.1183 262.9951 15.06399027306820
STARLINK-1335,45581,53.0547,0.0001437,15.06401591,546.2115098696477,548.2018536437836,1 45581U 20025BC  25310.58996751  .00005182  00000+0  36653-3 0  9994,2 45581  53.0547 269.2352 0001437 104.1596 255.9553 15.06401591306958
STARLINK-1337,45582,53.054,0.0001308,15.06397313,546.313956549965,548.1256298870712,1 45582U 20025BD  25310.14766221  .00000024  00000+0  20506-4 0  9995,2 45582  53.0540 271.2209 0001308  82.0393 278.0744 15.06397313306888
STARLINK-1347,45586,53.0549,0.0008216,15.32576351,462.50399134739837,473.7537754469977,1 45586U 20025BH  25310.12964825  .00111511  00000+0  34528-2 0  9998,2 45586  53.0549 255.8040 0008216  33.0748 327.0765 15.32576351307099
STARLINK-1360,45588,53.0416,0.000493,15.76695107,336.49993082395395,343.12382841926046,1 45588U 20025BK  25310.91668980  .00084835  00000+0  51757-3 0  9992,2 45588  53.0416 168.7126 0004930 147.5138 179.5937 15.76695107  6034
STARLINK-1364,45589,53.0552,0.0001213,15.064155,546.3240140602793,548.0040920957563,1 45589U 20025BL  25310.61577087  .00003543  00000+0  25653-3 0  9990,2 45589  53.0552 269.1221 0001213  77.6366 282.4758 15.06415500306954
STARLINK-1365,45590,53.0551,0.0001373,15.06400548,546.2590282713081,548.1607285241171,1 45590U 20025BM  25310.29969748  .00000398  00000+0  45580-4 0  9992,2 45590  53.0551 300.5372 0001373  93.8381 266.2765 15.06400548306501
STARLINK-1443,45660,53.0554,0.0001982,15.06383822,545.8885277103027,548.6337555336422,1 45660U 20035D   25310.15227530  .00016208  00000+0  11049-2 0  9990,2 45660  53.0554 261.2019 0001982  98.6894 261.4320 15.06383822300111
STARLINK-1446,45663,53.0251,0.0002138,15.34181533,461.8899367368058,464.81535770995924,1 45663U 20035G   25310.77473929  .00027488  00000+0  82730-3 0  9994,2 45663  53.0251 220.0758 0002138  70.7818 289.3414 15.34181533300740
STARLINK-1448,45665,53.0563,0.0001442,15.06390601,546.2417252533669,548.2390040853388,1 45665U 20035J   25310.15594400  .00000085  00000+0  24624-4 0  9999,2 45665  53.0563 261.1819 0001442  93.5246 266.5908 15.06390601300109
STARLINK-1451,45668,53.0567,0.0001773,15.06406266,545.9644927229183,548.4202145117124,1 45668U 20035M   25310.82314277  .00003225  00000+0  23525-3 0  9995,2 45668  53.0567 258.5104 0001773 103.4119 256.7067 15.06406266300214
STARLINK-1452,45669,53.0401,0.0012082,15.27181897,475.95029297976544,492.53254419043515,1 45669U 20035N   25310.77821578  .00046548  00000+0  17226-2 0  9992,2 45669  53.0401 238.7594 0012082  44.3170 315.8793 15.27181897300485
STARLINK-1453,45670,53.0525,0.0002005,15.06395855,545.8357268624277,548.6127967284083,1 45670U 20035P   25310.76689983  .00013083  00000+0  89564-3 0  9998,2 45670  53.0525 228.4420 0002005  93.8180 266.3038 15.06395855300516
STARLINK-1454,45671,53.0561,0.0001609,15.06409255,546.0689088224372,548.2974768604945,1 45671U 20035Q   25310.57983139  .00008519  00000+0  58995-3 0  9990,2 45671  53.0561 259.2814 0001609  90.2688 269.8485 15.06409255300164
STARLINK-1456,45673,53.0542,0.0001537,15.0640805,546.1224636762881,548.2513082388314,1 45673U 20035S   25310.59457774  .00003142  00000+0  22966-3 0  9991,2 45673  53.0542 259.2170 0001537  80.5717 279.5446 15.06408050300184
STARLINK-1457,45674,53.0533,0.0001399,15.20412736,503.63183246117023,505.55762079828037,1 45674U 20035T   25310.91668980  .01061131  00000+0  44545-1 0  9999,2 45674  53.0533 257.4175 0001399 115.6407 333.0313 15.20412736  5804
STARLINK-1458,45675,53.0558,0.0001719,15.06402389,546.0137698485632,548.3947021655022,1 45675U 20035U   25310.59088808  .00000246  00000+0  35430-4 0  9994,2 45675  53.0558 259.2300 0001719  83.6784 276.4401 15.06402389300140
STARLINK-1460,45676,53.0545,0.0001509,15.06396027,546.178697702966,548.2687715726788,1 45676U 20035V   25310.56140980  .00002913  00000+0  21443-3 0  9993,2 45676  53.0545 259.3625 0001509  81.9428 278.1732 15.06396027300137
STARLINK-1392,45677,53.0548,0.0001766,15.06441653,545.8609064229031,548.3068944449369,1 45677U 20035W   25310.83783093  .00015695  00000+0  10690-2 0  9994,2 45677  53.0548 258.1238 0001766 105.0477 255.0707 15.06441653300216
STARLINK-1394,45679,53.0542,0.0001509,15.0640077,546.1641632589062,548.2542327414621,1 45679U 20035Y   25310.83509287  .00002363  00000+0  17747-3 0  9996,2 45679  53.0542 248.1342 0001509  81.0683 279.0476 15.06400770300353
STARLINK-1402,45685,53.0538,0.0002999,15.27478716,481.2946328614107,485.4101541996497,1 45685U 20035AE  25310.82017633  .00052029  00000+0  19088-2 0  9994,2 45685  53.0538 240.0439 0002999 117.2416 242.8888 15.27478716300479
STARLINK-1404,45686,53.0561,0.0001918,15.0642977,545.7920543248047,548.4485830322501,1 45686U 20035AF  25310.52914277  .00014994  00000+0  10225-2 0  9995,2 45686  53.0561 249.5117 0001918 111.5377 248.5816 15.06429770300316
STARLINK-1413,45689,53.0549,0.0001531,15.06403647,546.1401112781496,548.2606495840364,1 45689U 20035AJ  25310.68028421  .00004373  00000+0  31223-3 0  9994,2 45689  53.0549 248.8277 0001531  87.7719 272.3446 15.06403647300240
STARLINK-1417,45693,53.0538,0.0001968,15.06398855,545.852157913765,548.577976487416,1 45693U 20035AN  25310.80928323  .00002075  00000+0  15816-3 0  9990,2 45693  53.0538 248.2523 0001968  92.3091 267.8123 15.06398855300346
STARLINK-1420,45695,53.0541,0.000241,15.06407282,545.5202361232041,548.8582433707625,1 45695U 20035AQ  25310.74383620  .00008013  00000+0  55611-3 0  9995,2 45695  53.0541 228.5343 0002410  91.5910 268.5355 15.06407282300628
STARLINK-1422,45696,53.0541,0.0001588,15.06404682,546.0974652474952,548.296951392057,1 45696U 20035AR  25310.82034885  .00007697  00000+0  53500-3 0  9993,2 45696  53.0541 248.2036 0001588  83.6869 276.4301 15.06404682300346
STARLINK-1351,45697,53.055,0.0001487,15.06412606,546.1431290478049,548.2027162187969,1 45697U 20035AS  25310.79639006  .00009591  00000+0  66167-3 0  9994,2 45697  53.0550 228.3085 0001487  72.9526 287.1626 15.06412606300635
STARLINK-1398,45699,53.0472,0.0005762,15.52721563,404.87323830599234,412.6944859074847,1 45699U 20035AU  25310.91668980  .00111845  00000+0  17618-2 0  9995,2 45699  53.0472 185.3579 0005762 122.4036  28.7999 15.52721563  5974
STARLINK-1400,45700,53.053,0.0001934,15.06412049,545.835274465604,548.5139850039841,1 45700U 20035AV  25310.77059249  .00013354  00000+0  91341-3 0  9996,2 45700  53.0530 228.4247 0001934  84.7669 275.3541 15.06412049300620
STARLINK-1403,45701,53.0529,0.0001296,15.06414959,546.2681919057995,548.0632303685252,1 45701U 20035AW  25310.80006596  .00014439  00000+0  98583-3 0  9998,2 45701  53.0529 228.2939 0001296  98.4988 261.6148 15.06414959300625
STARLINK-1407,45703,53.0403,0.0012713,15.41932409,431.73810672139734,449.07493547814556,1 45703U 20035AY  25310.38764008  .00085443  00000+0  19607-2 0  9994,2 45703  53.0403 187.2877 0012713  79.7326 280.5111 15.41932409301172
STARLINK-1411,45706,53.0527,0.0002532,15.41629557,439.5728091397141,443.0261717784815,1 45706U 20035BB  25310.00916276  .00047618  00000+0  11163-2 0  9993,2 45706  53.0527 216.2414 0002532 126.9548 233.1689 15.41629557300722
STARLINK-1423,45710,53.0536,0.0001423,15.06403613,546.2150091117128,548.1859601598408,1 45710U 20035BF  25310.09606573  .00018058  00000+0  12279-2 0  9998,2 45710  53.0536 231.4539 0001423  83.6206 276.4945 15.06403613300529
STARLINK-1433,45711,53.0542,0.000169,15.06393125,546.0622414359486,548.4030163705183,1 45711U 20035BG  25310.80744205 -.00001704  00000+0 -95519-4 0  9995,2 45711  53.0542 228.2584 0001690 100.6397 259.4782 15.06393125300625
STARLINK-1434,45712,53.0502,0.0006229,15.15774947,514.3308954266195,522.9228838803501,1 45712U 20035BH  25310.46848575  .00028841  00000+0  15027-2 0  9996,2 45712  53.0502 225.5522 0006229  81.4448 278.7250 15.15774947300641
STARLINK-1465,45731,53.0558,0.000125,15.06410411,546.3139853252651,548.045314487742,1 45731U 20038B   25310.70790020  .00003309  00000+0  24088-3 0  9998,2 45731  53.0558  68.7031 0001250  92.3429 267.7703 15.06410411297654
STARLINK-1471,45735,53.0518,6.71e-05,15.41179492,442.16938928217496,443.0847358193705,1 45735U 20038F   25310.58523338  .00028275  00000+0  67847-3 0  9993,2 45735  53.0518   8.0500 0000671 113.3751 246.7323 15.41179492298500
STARLINK-1474,45738,53.0371,0.0004329,15.67729233,362.4816369374503,368.32019206382574,1 45738U 20038J   25310.32956604  .00097173  00000+0  86465-3 0  9994,2 45738  53.0371 325.4696 0004329   3.4347 356.6698 15.67729233299077
STARLINK-1475,45739,53.0472,0.0006717,15.80463237,324.6244348318769,333.6349769245544,1 45739U 20038K   25310.91668980  .00381924  00000+0  18876-2 0  9997,2 45739  53.0472 288.5838 0006717  47.6087 277.7347 15.80463237  6020
